{
  "type": "FeatureCollection",
  "features": [
    {
      "type": "Feature",
      "properties": {
        "id": "BR-01",
        "x": -650.0,
        "z": 950.0,
        "width": 28.0,
        "length": 140.0,
        "vertical": false,
        "local_x_m": -650.0,
        "local_z_m": 950.0
      },
      "geometry": {
        "type": "Polygon",
        "coordinates": [
          [
            [
              -0.0064678404599353215,
              0.008408192597915918
            ],
            [
              -0.005210204814947898,
              0.008408192597915918
            ],
            [
              -0.005210204814947898,
              0.008659719726913402
            ],
            [
              -0.0064678404599353215,
              0.008659719726913402
            ],
            [
              -0.0064678404599353215,
              0.008408192597915918
            ]
          ]
        ]
      }
    },
    {
      "type": "Feature",
      "properties": {
        "id": "BR-02",
        "x": 480.0,
        "z": 950.0,
        "width": 28.0,
        "length": 140.0,
        "vertical": false,
        "local_x_m": 480.0,
        "local_z_m": 950.0
      },
      "geometry": {
        "type": "Polygon",
        "coordinates": [
          [
            [
              0.0036830758174631693,
              0.008408192597915918
            ],
            [
              0.004940711462450593,
              0.008408192597915918
            ],
            [
              0.004940711462450593,
              0.008659719726913402
            ],
            [
              0.0036830758174631693,
              0.008659719726913402
            ],
            [
              0.0036830758174631693,
              0.008408192597915918
            ]
          ]
        ]
      }
    },
    {
      "type": "Feature",
      "properties": {
        "id": "BR-03",
        "x": -650.0,
        "z": 650.0,
        "width": 28.0,
        "length": 140.0,
        "vertical": false,
        "local_x_m": -650.0,
        "local_z_m": 650.0
      },
      "geometry": {
        "type": "Polygon",
        "coordinates": [
          [
            [
              -0.0064678404599353215,
              0.005713259072942867
            ],
            [
              -0.005210204814947898,
              0.005713259072942867
            ],
            [
              -0.005210204814947898,
              0.005964786201940352
            ],
            [
              -0.0064678404599353215,
              0.005964786201940352
            ],
            [
              -0.0064678404599353215,
              0.005713259072942867
            ]
          ]
        ]
      }
    },
    {
      "type": "Feature",
      "properties": {
        "id": "BR-04",
        "x": 480.0,
        "z": 650.0,
        "width": 28.0,
        "length": 140.0,
        "vertical": false,
        "local_x_m": 480.0,
        "local_z_m": 650.0
      },
      "geometry": {
        "type": "Polygon",
        "coordinates": [
          [
            [
              0.0036830758174631693,
              0.005713259072942867
            ],
            [
              0.004940711462450593,
              0.005713259072942867
            ],
            [
              0.004940711462450593,
              0.005964786201940352
            ],
            [
              0.0036830758174631693,
              0.005964786201940352
            ],
            [
              0.0036830758174631693,
              0.005713259072942867
            ]
          ]
        ]
      }
    },
    {
      "type": "Feature",
      "properties": {
        "id": "BR-05",
        "x": -650.0,
        "z": 350.0,
        "width": 28.0,
        "length": 140.0,
        "vertical": false,
        "local_x_m": -650.0,
        "local_z_m": 350.0
      },
      "geometry": {
        "type": "Polygon",
        "coordinates": [
          [
            [
              -0.0064678404599353215,
              0.0030183255479698167
            ],
            [
              -0.005210204814947898,
              0.0030183255479698167
            ],
            [
              -0.005210204814947898,
              0.0032698526769673014
            ],
            [
              -0.0064678404599353215,
              0.0032698526769673014
            ],
            [
              -0.0064678404599353215,
              0.0030183255479698167
            ]
          ]
        ]
      }
    },
    {
      "type": "Feature",
      "properties": {
        "id": "BR-06",
        "x": 483.75,
        "z": 350.0,
        "width": 28.0,
        "length": 140.0,
        "vertical": false,
        "local_x_m": 483.75,
        "local_z_m": 350.0
      },
      "geometry": {
        "type": "Polygon",
        "coordinates": [
          [
            [
              0.0037167624865253324,
              0.0030183255479698167
            ],
            [
              0.004974398131512756,
              0.0030183255479698167
            ],
            [
              0.004974398131512756,
              0.0032698526769673014
            ],
            [
              0.0037167624865253324,
              0.0032698526769673014
            ],
            [
              0.0037167624865253324,
              0.0030183255479698167
            ]
          ]
        ]
      }
    },
    {
      "type": "Feature",
      "properties": {
        "id": "BR-07",
        "x": -689.2857142857143,
        "z": -350.0,
        "width": 28.0,
        "length": 140.0,
        "vertical": false,
        "local_x_m": -689.2857142857143,
        "local_z_m": -350.0
      },
      "geometry": {
        "type": "Polygon",
        "coordinates": [
          [
            [
              -0.0068207484215389354,
              -0.0032698526769673014
            ],
            [
              -0.005563112776551513,
              -0.0032698526769673014
            ],
            [
              -0.005563112776551513,
              -0.0030183255479698167
            ],
            [
              -0.0068207484215389354,
              -0.0030183255479698167
            ],
            [
              -0.0068207484215389354,
              -0.0032698526769673014
            ]
          ]
        ]
      }
    },
    {
      "type": "Feature",
      "properties": {
        "id": "BR-08",
        "x": 520.0,
        "z": -350.0,
        "width": 28.0,
        "length": 140.0,
        "vertical": false,
        "local_x_m": 520.0,
        "local_z_m": -350.0
      },
      "geometry": {
        "type": "Polygon",
        "coordinates": [
          [
            [
              0.004042400287459576,
              -0.0032698526769673014
            ],
            [
              0.005300035932447,
              -0.0032698526769673014
            ],
            [
              0.005300035932447,
              -0.0030183255479698167
            ],
            [
              0.004042400287459576,
              -0.0030183255479698167
            ],
            [
              0.004042400287459576,
              -0.0032698526769673014
            ]
          ]
        ]
      }
    },
    {
      "type": "Feature",
      "properties": {
        "id": "BR-09",
        "x": -700.0,
        "z": -950.0,
        "width": 28.0,
        "length": 140.0,
        "vertical": false,
        "local_x_m": -700.0,
        "local_z_m": -950.0
      },
      "geometry": {
        "type": "Polygon",
        "coordinates": [
          [
            [
              -0.00691699604743083,
              -0.008659719726913402
            ],
            [
              -0.005659360402443406,
              -0.008659719726913402
            ],
            [
              -0.005659360402443406,
              -0.008408192597915918
            ],
            [
              -0.00691699604743083,
              -0.008408192597915918
            ],
            [
              -0.00691699604743083,
              -0.008659719726913402
            ]
          ]
        ]
      }
    },
    {
      "type": "Feature",
      "properties": {
        "id": "BR-10",
        "x": 705.0,
        "z": -950.0,
        "width": 28.0,
        "length": 140.0,
        "vertical": false,
        "local_x_m": 705.0,
        "local_z_m": -950.0
      },
      "geometry": {
        "type": "Polygon",
        "coordinates": [
          [
            [
              0.005704275961192958,
              -0.008659719726913402
            ],
            [
              0.0069619116061803805,
              -0.008659719726913402
            ],
            [
              0.0069619116061803805,
              -0.008408192597915918
            ],
            [
              0.005704275961192958,
              -0.008408192597915918
            ],
            [
              0.005704275961192958,
              -0.008659719726913402
            ]
          ]
        ]
      }
    },
    {
      "type": "Feature",
      "properties": {
        "id": "BR-11",
        "x": -718.1818181818181,
        "z": -1400.0,
        "width": 28.0,
        "length": 140.0,
        "vertical": false,
        "local_x_m": -718.1818181818181,
        "local_z_m": -1400.0
      },
      "geometry": {
        "type": "Polygon",
        "coordinates": [
          [
            [
              -0.007080325351974651,
              -0.01270212001437298
            ],
            [
              -0.005822689706987227,
              -0.01270212001437298
            ],
            [
              -0.005822689706987227,
              -0.012450592885375493
            ],
            [
              -0.007080325351974651,
              -0.012450592885375493
            ],
            [
              -0.007080325351974651,
              -0.01270212001437298
            ]
          ]
        ]
      }
    },
    {
      "type": "Feature",
      "properties": {
        "id": "BR-12",
        "x": 720.0,
        "z": -1400.0,
        "width": 28.0,
        "length": 140.0,
        "vertical": false,
        "local_x_m": 720.0,
        "local_z_m": -1400.0
      },
      "geometry": {
        "type": "Polygon",
        "coordinates": [
          [
            [
              0.00583902263744161,
              -0.01270212001437298
            ],
            [
              0.007096658282429034,
              -0.01270212001437298
            ],
            [
              0.007096658282429034,
              -0.012450592885375493
            ],
            [
              0.00583902263744161,
              -0.012450592885375493
            ],
            [
              0.00583902263744161,
              -0.01270212001437298
            ]
          ]
        ]
      }
    },
    {
      "type": "Feature",
      "properties": {
        "id": "BR-13",
        "x": -400.0,
        "z": -1300.0,
        "width": 26.0,
        "length": 140.0,
        "vertical": true,
        "local_x_m": -400.0,
        "local_z_m": -1300.0
      },
      "geometry": {
        "type": "Polygon",
        "coordinates": [
          [
            [
              -0.0037100251527128997,
              -0.01230686309737693
            ],
            [
              -0.0034764642472152356,
              -0.01230686309737693
            ],
            [
              -0.0034764642472152356,
              -0.011049227452389508
            ],
            [
              -0.0037100251527128997,
              -0.011049227452389508
            ],
            [
              -0.0037100251527128997,
              -0.01230686309737693
            ]
          ]
        ]
      }
    },
    {
      "type": "Feature",
      "properties": {
        "id": "BR-14",
        "x": 150.0,
        "z": -1300.0,
        "width": 26.0,
        "length": 140.0,
        "vertical": true,
        "local_x_m": 150.0,
        "local_z_m": -1300.0
      },
      "geometry": {
        "type": "Polygon",
        "coordinates": [
          [
            [
              0.0012306863097376931,
              -0.01230686309737693
            ],
            [
              0.0014642472152353574,
              -0.01230686309737693
            ],
            [
              0.0014642472152353574,
              -0.011049227452389508
            ],
            [
              0.0012306863097376931,
              -0.011049227452389508
            ],
            [
              0.0012306863097376931,
              -0.01230686309737693
            ]
          ]
        ]
      }
    },
    {
      "type": "Feature",
      "properties": {
        "id": "BR-15",
        "x": -1650.0,
        "z": -200.0,
        "width": 14.0,
        "length": 66.0,
        "vertical": true,
        "local_x_m": -1650.0,
        "local_z_m": -200.0
      },
      "geometry": {
        "type": "Polygon",
        "coordinates": [
          [
            [
              -0.01488501616960115,
              -0.0020930650377290693
            ],
            [
              -0.014759252605102408,
              -0.0020930650377290693
            ],
            [
              -0.014759252605102408,
              -0.001500179662234998
            ],
            [
              -0.01488501616960115,
              -0.001500179662234998
            ],
            [
              -0.01488501616960115,
              -0.0020930650377290693
            ]
          ]
        ]
      }
    },
    {
      "type": "Feature",
      "properties": {
        "id": "BR-16",
        "x": -1000.0,
        "z": -200.0,
        "width": 14.0,
        "length": 66.0,
        "vertical": true,
        "local_x_m": -1000.0,
        "local_z_m": -200.0
      },
      "geometry": {
        "type": "Polygon",
        "coordinates": [
          [
            [
              -0.00904599353215954,
              -0.0020930650377290693
            ],
            [
              -0.008920229967660797,
              -0.0020930650377290693
            ],
            [
              -0.008920229967660797,
              -0.001500179662234998
            ],
            [
              -0.00904599353215954,
              -0.001500179662234998
            ],
            [
              -0.00904599353215954,
              -0.0020930650377290693
            ]
          ]
        ]
      }
    },
    {
      "type": "Feature",
      "properties": {
        "id": "BR-17",
        "x": -1650.0,
        "z": -500.0,
        "width": 14.0,
        "length": 66.0,
        "vertical": true,
        "local_x_m": -1650.0,
        "local_z_m": -500.0
      },
      "geometry": {
        "type": "Polygon",
        "coordinates": [
          [
            [
              -0.01488501616960115,
              -0.00478799856270212
            ],
            [
              -0.014759252605102408,
              -0.00478799856270212
            ],
            [
              -0.014759252605102408,
              -0.004195113187208049
            ],
            [
              -0.01488501616960115,
              -0.004195113187208049
            ],
            [
              -0.01488501616960115,
              -0.00478799856270212
            ]
          ]
        ]
      }
    },
    {
      "type": "Feature",
      "properties": {
        "id": "BR-18",
        "x": -1000.0,
        "z": -500.0,
        "width": 14.0,
        "length": 66.0,
        "vertical": true,
        "local_x_m": -1000.0,
        "local_z_m": -500.0
      },
      "geometry": {
        "type": "Polygon",
        "coordinates": [
          [
            [
              -0.00904599353215954,
              -0.00478799856270212
            ],
            [
              -0.008920229967660797,
              -0.00478799856270212
            ],
            [
              -0.008920229967660797,
              -0.004195113187208049
            ],
            [
              -0.00904599353215954,
              -0.004195113187208049
            ],
            [
              -0.00904599353215954,
              -0.00478799856270212
            ]
          ]
        ]
      }
    },
    {
      "type": "Feature",
      "properties": {
        "id": "BR-19",
        "x": -1650.0,
        "z": -800.0,
        "width": 14.0,
        "length": 66.0,
        "vertical": true,
        "local_x_m": -1650.0,
        "local_z_m": -800.0
      },
      "geometry": {
        "type": "Polygon",
        "coordinates": [
          [
            [
              -0.01488501616960115,
              -0.00748293208767517
            ],
            [
              -0.014759252605102408,
              -0.00748293208767517
            ],
            [
              -0.014759252605102408,
              -0.006890046712181099
            ],
            [
              -0.01488501616960115,
              -0.006890046712181099
            ],
            [
              -0.01488501616960115,
              -0.00748293208767517
            ]
          ]
        ]
      }
    },
    {
      "type": "Feature",
      "properties": {
        "id": "BR-20",
        "x": -1000.0,
        "z": -800.0,
        "width": 14.0,
        "length": 66.0,
        "vertical": true,
        "local_x_m": -1000.0,
        "local_z_m": -800.0
      },
      "geometry": {
        "type": "Polygon",
        "coordinates": [
          [
            [
              -0.00904599353215954,
              -0.00748293208767517
            ],
            [
              -0.008920229967660797,
              -0.00748293208767517
            ],
            [
              -0.008920229967660797,
              -0.006890046712181099
            ],
            [
              -0.00904599353215954,
              -0.006890046712181099
            ],
            [
              -0.00904599353215954,
              -0.00748293208767517
            ]
          ]
        ]
      }
    },
    {
      "type": "Feature",
      "properties": {
        "id": "BR-21",
        "x": -1650.0,
        "z": -1050.0,
        "width": 14.0,
        "length": 66.0,
        "vertical": true,
        "local_x_m": -1650.0,
        "local_z_m": -1050.0
      },
      "geometry": {
        "type": "Polygon",
        "coordinates": [
          [
            [
              -0.01488501616960115,
              -0.009728710025152713
            ],
            [
              -0.014759252605102408,
              -0.009728710025152713
            ],
            [
              -0.014759252605102408,
              -0.009135824649658642
            ],
            [
              -0.01488501616960115,
              -0.009135824649658642
            ],
            [
              -0.01488501616960115,
              -0.009728710025152713
            ]
          ]
        ]
      }
    },
    {
      "type": "Feature",
      "properties": {
        "id": "BR-22",
        "x": -1000.0,
        "z": -1050.0,
        "width": 14.0,
        "length": 66.0,
        "vertical": true,
        "local_x_m": -1000.0,
        "local_z_m": -1050.0
      },
      "geometry": {
        "type": "Polygon",
        "coordinates": [
          [
            [
              -0.00904599353215954,
              -0.009728710025152713
            ],
            [
              -0.008920229967660797,
              -0.009728710025152713
            ],
            [
              -0.008920229967660797,
              -0.009135824649658642
            ],
            [
              -0.00904599353215954,
              -0.009135824649658642
            ],
            [
              -0.00904599353215954,
              -0.009728710025152713
            ]
          ]
        ]
      }
    },
    {
      "type": "Feature",
      "properties": {
        "id": "BR-23",
        "x": 455.0,
        "z": 1150.0,
        "width": 34.0,
        "length": 150.0,
        "vertical": false,
        "local_x_m": 455.0,
        "local_z_m": 1150.0
      },
      "geometry": {
        "type": "Polygon",
        "coordinates": [
          [
            [
              0.003413582464965864,
              0.010177865612648222
            ],
            [
              0.004761049227452389,
              0.010177865612648222
            ],
            [
              0.004761049227452389,
              0.010483291412145167
            ],
            [
              0.003413582464965864,
              0.010483291412145167
            ],
            [
              0.003413582464965864,
              0.010177865612648222
            ]
          ]
        ]
      }
    },
    {
      "type": "Feature",
      "properties": {
        "id": "BR-24",
        "x": 740.0,
        "z": -1400.0,
        "width": 34.0,
        "length": 150.0,
        "vertical": false,
        "local_x_m": 740.0,
        "local_z_m": -1400.0
      },
      "geometry": {
        "type": "Polygon",
        "coordinates": [
          [
            [
              0.0059737693136902624,
              -0.01272906934962271
            ],
            [
              0.007321236076176788,
              -0.01272906934962271
            ],
            [
              0.007321236076176788,
              -0.012423643550125764
            ],
            [
              0.0059737693136902624,
              -0.012423643550125764
            ],
            [
              0.0059737693136902624,
              -0.01272906934962271
            ]
          ]
        ]
      }
    }
  ],
  "mirage": {
    "anchor_lat": 0.0,
    "anchor_lon": 0.0
  }
}
