{
  "type": "FeatureCollection",
  "features": [
    {
      "type": "Feature",
      "properties": {
        "id": "WATER-01",
        "kind": "canal",
        "width_m": 90
      },
      "geometry": {
        "type": "LineString",
        "coordinates": [
          [
            -0.00583902263744161,
            0.010330578512396695
          ],
          [
            -0.00583902263744161,
            0.007186489399928135
          ],
          [
            -0.00583902263744161,
            0.0017966223499820337
          ],
          [
            -0.006288178224937119,
            -0.0044915558749550845
          ],
          [
            -0.006288178224937119,
            -0.01167804527488322
          ],
          [
            -0.007186489399928135,
            -0.016618756737333814
          ]
        ]
      }
    },
    {
      "type": "Feature",
      "properties": {
        "id": "WATER-02",
        "kind": "canal",
        "width_m": 90
      },
      "geometry": {
        "type": "LineString",
        "coordinates": [
          [
            0.004311893639956881,
            0.009881422924901186
          ],
          [
            0.004311893639956881,
            0.0044915558749550845
          ],
          [
            0.0044915558749550845,
            -0.0026949335249730508
          ],
          [
            0.006288178224937119,
            -0.007186489399928135
          ],
          [
            0.0064678404599353215,
            -0.012576356449874237
          ],
          [
            0.008983111749910169,
            -0.016169601149838304
          ]
        ]
      }
    },
    {
      "type": "Feature",
      "properties": {
        "id": "WATER-03",
        "kind": "canal",
        "width_m": 90
      },
      "geometry": {
        "type": "LineString",
        "coordinates": [
          [
            -0.006737333812432626,
            -0.01167804527488322
          ],
          [
            -0.0017966223499820337,
            -0.01167804527488322
          ],
          [
            0.0035932446999640674,
            -0.01167804527488322
          ],
          [
            0.006737333812432626,
            -0.01167804527488322
          ]
        ]
      }
    },
    {
      "type": "Feature",
      "properties": {
        "id": "WATER-04",
        "kind": "canal",
        "width_m": 40
      },
      "geometry": {
        "type": "LineString",
        "coordinates": [
          [
            -0.016349263384836506,
            -0.0017966223499820337
          ],
          [
            -0.012576356449874237,
            -0.0017966223499820337
          ],
          [
            -0.009881422924901186,
            -0.0017966223499820337
          ],
          [
            -0.006288178224937119,
            -0.0017966223499820337
          ]
        ]
      }
    },
    {
      "type": "Feature",
      "properties": {
        "id": "WATER-05",
        "kind": "canal",
        "width_m": 40
      },
      "geometry": {
        "type": "LineString",
        "coordinates": [
          [
            -0.016349263384836506,
            -0.0044915558749550845
          ],
          [
            -0.012576356449874237,
            -0.0044915558749550845
          ],
          [
            -0.009881422924901186,
            -0.0044915558749550845
          ],
          [
            -0.006288178224937119,
            -0.0044915558749550845
          ]
        ]
      }
    },
    {
      "type": "Feature",
      "properties": {
        "id": "WATER-06",
        "kind": "canal",
        "width_m": 40
      },
      "geometry": {
        "type": "LineString",
        "coordinates": [
          [
            -0.016349263384836506,
            -0.007186489399928135
          ],
          [
            -0.012576356449874237,
            -0.007186489399928135
          ],
          [
            -0.009881422924901186,
            -0.007186489399928135
          ],
          [
            -0.006288178224937119,
            -0.007186489399928135
          ]
        ]
      }
    },
    {
      "type": "Feature",
      "properties": {
        "id": "WATER-07",
        "kind": "canal",
        "width_m": 40
      },
      "geometry": {
        "type": "LineString",
        "coordinates": [
          [
            -0.016349263384836506,
            -0.009432267337405677
          ],
          [
            -0.012576356449874237,
            -0.009432267337405677
          ],
          [
            -0.009881422924901186,
            -0.009432267337405677
          ],
          [
            -0.006288178224937119,
            -0.009432267337405677
          ]
        ]
      }
    }
  ],
  "mirage": {
    "anchor_lat": 0.0,
    "anchor_lon": 0.0
  }
}
