{
  "type": "FeatureCollection",
  "features": [
    {
      "type": "Feature",
      "properties": {
        "id": "DIST-01",
        "name": "HILLS / VIP",
        "planner_color": "#6e9c71",
        "local_bounds_m": [
          -700,
          950,
          700,
          1900
        ]
      },
      "geometry": {
        "type": "Polygon",
        "coordinates": [
          [
            [
              -0.006288178224937119,
              0.00853395616241466
            ],
            [
              0.006288178224937119,
              0.00853395616241466
            ],
            [
              0.006288178224937119,
              0.01706791232482932
            ],
            [
              -0.006288178224937119,
              0.01706791232482932
            ],
            [
              -0.006288178224937119,
              0.00853395616241466
            ]
          ]
        ]
      }
    },
    {
      "type": "Feature",
      "properties": {
        "id": "DIST-02",
        "name": "OLD TOWN",
        "planner_color": "#c9916f",
        "local_bounds_m": [
          -1800,
          250,
          -700,
          1100
        ]
      },
      "geometry": {
        "type": "Polygon",
        "coordinates": [
          [
            [
              -0.016169601149838304,
              0.0022457779374775422
            ],
            [
              -0.006288178224937119,
              0.0022457779374775422
            ],
            [
              -0.006288178224937119,
              0.009881422924901186
            ],
            [
              -0.016169601149838304,
              0.009881422924901186
            ],
            [
              -0.016169601149838304,
              0.0022457779374775422
            ]
          ]
        ]
      }
    },
    {
      "type": "Feature",
      "properties": {
        "id": "DIST-03",
        "name": "DOWNTOWN",
        "planner_color": "#7bacc8",
        "local_bounds_m": [
          -600,
          -100,
          400,
          800
        ]
      },
      "geometry": {
        "type": "Polygon",
        "coordinates": [
          [
            [
              -0.0053898670499461015,
              -0.0008983111749910168
            ],
            [
              0.0035932446999640674,
              -0.0008983111749910168
            ],
            [
              0.0035932446999640674,
              0.007186489399928135
            ],
            [
              -0.0053898670499461015,
              0.007186489399928135
            ],
            [
              -0.0053898670499461015,
              -0.0008983111749910168
            ]
          ]
        ]
      }
    },
    {
      "type": "Feature",
      "properties": {
        "id": "DIST-04",
        "name": "TECH / BUSINESS",
        "planner_color": "#8da8d9",
        "local_bounds_m": [
          550,
          200,
          1450,
          1000
        ]
      },
      "geometry": {
        "type": "Polygon",
        "coordinates": [
          [
            [
              0.004940711462450593,
              0.0017966223499820337
            ],
            [
              0.013025512037369746,
              0.0017966223499820337
            ],
            [
              0.013025512037369746,
              0.008983111749910169
            ],
            [
              0.004940711462450593,
              0.008983111749910169
            ],
            [
              0.004940711462450593,
              0.0017966223499820337
            ]
          ]
        ]
      }
    },
    {
      "type": "Feature",
      "properties": {
        "id": "DIST-05",
        "name": "INDUSTRIAL PORT",
        "planner_color": "#9d9d96",
        "local_bounds_m": [
          1000,
          -1150,
          1950,
          100
        ]
      },
      "geometry": {
        "type": "Polygon",
        "coordinates": [
          [
            [
              0.008983111749910169,
              -0.010330578512396695
            ],
            [
              0.01751706791232483,
              -0.010330578512396695
            ],
            [
              0.01751706791232483,
              0.0008983111749910168
            ],
            [
              0.008983111749910169,
              0.0008983111749910168
            ],
            [
              0.008983111749910169,
              -0.010330578512396695
            ]
          ]
        ]
      }
    },
    {
      "type": "Feature",
      "properties": {
        "id": "DIST-06",
        "name": "CANAL RESIDENTIAL",
        "planner_color": "#74b7ad",
        "local_bounds_m": [
          -1850,
          -1150,
          -750,
          100
        ]
      },
      "geometry": {
        "type": "Polygon",
        "coordinates": [
          [
            [
              -0.016618756737333814,
              -0.010330578512396695
            ],
            [
              -0.006737333812432626,
              -0.010330578512396695
            ],
            [
              -0.006737333812432626,
              0.0008983111749910168
            ],
            [
              -0.016618756737333814,
              0.0008983111749910168
            ],
            [
              -0.016618756737333814,
              -0.010330578512396695
            ]
          ]
        ]
      }
    },
    {
      "type": "Feature",
      "properties": {
        "id": "DIST-07",
        "name": "NIGHTLIFE",
        "planner_color": "#b889b3",
        "local_bounds_m": [
          -600,
          -650,
          500,
          -200
        ]
      },
      "geometry": {
        "type": "Polygon",
        "coordinates": [
          [
            [
              -0.0053898670499461015,
              -0.00583902263744161
            ],
            [
              0.0044915558749550845,
              -0.00583902263744161
            ],
            [
              0.0044915558749550845,
              -0.0017966223499820337
            ],
            [
              -0.0053898670499461015,
              -0.0017966223499820337
            ],
            [
              -0.0053898670499461015,
              -0.00583902263744161
            ]
          ]
        ]
      }
    },
    {
      "type": "Feature",
      "properties": {
        "id": "DIST-08",
        "name": "RIVERSIDE",
        "planner_color": "#a5b87e",
        "local_bounds_m": [
          -600,
          -1250,
          650,
          -750
        ]
      },
      "geometry": {
        "type": "Polygon",
        "coordinates": [
          [
            [
              -0.0053898670499461015,
              -0.011228889687387712
            ],
            [
              0.00583902263744161,
              -0.011228889687387712
            ],
            [
              0.00583902263744161,
              -0.006737333812432626
            ],
            [
              -0.0053898670499461015,
              -0.006737333812432626
            ],
            [
              -0.0053898670499461015,
              -0.011228889687387712
            ]
          ]
        ]
      }
    },
    {
      "type": "Feature",
      "properties": {
        "id": "DIST-09",
        "name": "BEACH / MARINA",
        "planner_color": "#d6c496",
        "local_bounds_m": [
          -800,
          -1750,
          1100,
          -1350
        ]
      },
      "geometry": {
        "type": "Polygon",
        "coordinates": [
          [
            [
              -0.007186489399928135,
              -0.015720445562342797
            ],
            [
              0.009881422924901186,
              -0.015720445562342797
            ],
            [
              0.009881422924901186,
              -0.012127200862378729
            ],
            [
              -0.007186489399928135,
              -0.012127200862378729
            ],
            [
              -0.007186489399928135,
              -0.015720445562342797
            ]
          ]
        ]
      }
    }
  ],
  "mirage": {
    "anchor_lat": 0.0,
    "anchor_lon": 0.0
  }
}
